#dP2024  3 20  0  0  0.00000000      96 __u+U IGS20 FIT  IAC
## 2306 259200.00000000   900.00000000 60389 0.0000000000000
+  130   C01C02C03C04C05C06C07C08C09C10C11C12C13C14C16C19C20
+        C21C22C23C24C25C26C27C28C29C30C32C33C34C35C36C37C38
+        C39C40C41C42C43C44C45C46C60E02E03E04E05E07E08E09E10
+        E11E12E13E14E15E18E19E21E24E25E26E27E30E31E33E34E36
+        G01G02G03G04G05G06G07G08G09G10G11G12G13G14G15G16G17
+        G18G19G20G21G22G23G24G25G26G27G28G29G30G31G32J02J03
+        J04J07R01R02R03R04R05R06R07R08R09R10R11R12R13R14R15
+        R16R17R18R19R20R21R22R23R24R25R26  0  0  0  0  0  0
++        17 17 17 17  0  9 10 10  9  9  9  9  9  9  9  8  7
++         7  8  7  7  7  7  7  7  7  7  7  7  7  9  8  7  8
++         8  8  7  7  7  7  7  7 17  4  4  4  4  5  5  4  4
++         4  4  5  4  5  5  4  4  4  4  5  4  5  4  5  4  4
++         5  4  4  4  4  4  4  4  4  4  4  4  4  4  4  4  4
++         4  4  4  4  4  4  4  4  4  4  4  4  4  4  4 10 11
++        11 17  7  6  6  6  6 15  6  6  6 15  6  6  8  6  6
++         6  6  6  8  8  6  6 15  6  8  9  0  0  0  0  0  0
%c M  cc GPS ccc cccc cccc cccc cccc ccccc ccccc ccccc ccccc
%c cc cc ccc ccc cccc cccc cccc cccc ccccc ccccc ccccc ccccc
%f  0.0000000  0.000000000  0.00000000000  0.000000000000000
%f  0.0000000  0.000000000  0.00000000000  0.000000000000000
%i    0    0    0    0      0      0      0      0         0
%i    0    0    0    0      0      0      0      0         0
/* INFORMATION & ANALYSIS CENTER (IAC)            RAPID DATA
/* S/V CLOCKS ARE ALIGNED TO GNSS TIME                      
/* G:C1WC2W R:C1PC2P E:C1XC5X C:C2IC6I J:C1CC2S             
/* PCV:IGS20_2290 OL/AL:FES2004  NONE     YN ORB:CoN CLK:CoN
*  2024 03 20 21 30  0.00000000
PC01 -34343.583927  24432.132056   -671.105210    888.575624
PC02   4382.748365  41965.694171   1017.340003    529.806523
PC03 -14756.217600  39530.191657    -56.989712     74.332122
PC04 -39584.689326  14435.242952   -959.015396    -54.452829
PC05      0.000000      0.000000      0.000000 999999.999999
PC06  -2970.817454  25763.923191  33354.008669    287.091856
PC07 -18323.006720  34082.969743 -16909.941671   -896.798326
PC08  -5375.281422  39294.226463 -14008.671081     45.010375
PC09   4201.557722  28686.956280  31277.752382   -648.460263
PC10 -11168.748946  34171.878073 -22121.191518     36.595305
PC11 -25587.529809  -9227.882105   6310.350422    470.065959
PC12 -10362.792096 -15804.873769  20565.680538   -216.964063
PC13     78.501890  41553.314211  -6055.169779    426.175322
PC14 -15873.822419  -4611.055796 -22474.998875    452.066925
PC16  -7498.509780  23340.193220  34612.961275   -408.207607
PC19  20153.338440  -4897.770513  18685.821438   -918.158444
PC20  10232.424110  12060.661900  23009.507756   -276.951714
PC21   6885.298550 -23273.519268 -13725.244230   -961.422139
PC22  19096.477153 -20054.856101   3309.691844    -67.750683
PC23 -11699.473148  13123.403622  21669.454258   -776.019099
PC24 -14086.006727 -23187.458379   6566.843526    952.211126
PC25 -18291.851293  -6279.256506  20111.434756    354.443339
PC26  -2660.879063 -25813.439078 -10327.044601   -265.609425
PC27    366.738955  16198.333374 -22742.911389    287.488376
PC28 -17626.845072  10517.140536 -18901.668462    219.361303
PC29  27762.469350   1992.854094   2045.467014    257.244644
PC30  19296.664670  13212.410567 -15254.940819    -41.485938
PC32  -6759.910100  23384.708339  13684.830321   -586.539697
PC33 -20124.687126   4991.568982 -18679.561063   -960.226249
PC34 -20546.522553 -12581.481353  14046.052181    394.449570
PC35  17441.530373 -11129.737478  18730.102674    406.460466
PC36  18164.714369   7033.729479 -19963.212852     24.926847
PC37   1803.647484  25729.091992  10629.255112   -946.965953
PC38  -9743.517336  35549.427706 -20305.547845    143.959673
PC39 -13081.589679  20397.170681  34560.089707     -7.647552
PC40 -25799.900532  29057.437650 -16713.924914    -61.686842
PC41 -19311.727066  19737.846603  -4043.339946   -909.110825
PC42  -9000.784092 -13409.806773 -22705.364920   -446.089654
PC43 -27745.256226  -2619.149505  -1164.845984     64.890097
PC44   -724.587746 -16281.341876  22633.613535    419.243766
PC45  11567.945833 -13160.512327 -21730.558628    -76.575581
PC46  14394.075312  22703.575718  -7425.916315   -133.263957
PC60   7301.120240  41527.035142   -420.296281     -0.441190
PE02  17310.421343 -12838.365450 -20308.786043    112.817965
PE03  27726.711318 -10166.850109  -1904.695249   -101.666202
PE04 -14131.466636  18141.990364  18651.731689   -354.334860
PE05  24865.472689   3611.303945  15653.221537   4730.921244
PE07  -7028.929163 -15516.725415 -24197.558559   -110.028414
PE08  14900.421126 -17923.315059 -18233.544047   -242.049766
PE09   6839.122940  15441.248763  24316.025616   -377.634777
PE10   6217.707771  22012.589155 -18794.409407   -610.834885
PE11  15306.175616  23145.039441 -10346.191348   3148.604608
PE12  -2918.373198  17867.087309 -23426.452839   -957.449490
PE13 -14836.878056 -23141.989213  10960.707908    -20.625478
PE14 -25009.984002  17151.564848 -11558.063287     72.055195
PE15   3424.491123 -17454.179696  23663.246713    -92.366238
PE18  16666.511543 -13158.124258  10034.705207    458.021500
PE19 -28292.830031   8700.152683   -140.837406   -395.752149
PE21 -15049.918942  -8590.022352  23989.503740   -584.979963
PE24   3665.386304  26074.598525 -13522.337311   -662.151462
PE25  14907.804588   9025.878296 -23927.760176      2.355121
PE26 -24223.667452 -14739.644318  -8472.578051    402.177358
PE27  -3926.941278 -25900.334984  13785.427202   -303.730880
PE30   9594.693299 -27630.835401  -4610.021200   -115.074515
PE31  -9370.937488  27725.532212   4416.592576    -18.755971
PE33 -19700.015572   1133.805106 -22058.288197      9.288052
PE34  19390.751652  -1666.988984  22299.693504   -101.083533
PE36  24129.170679  15218.150549   7934.536214   -201.994757
PG01  21816.651072   9416.288202  11868.261840    175.045216
PG02  22602.439678  13972.959584   3156.040279   -467.034783
PG03  12907.463933   8452.061588  21492.757525    263.836280
PG04  22083.858130   3756.854912  14390.107260    319.637679
PG05  -7239.869280 -20821.305693 -14919.846548   -166.126635
PG06   3377.546562 -15681.330517  21210.662175    359.210606
PG07  19258.154559   -197.262256 -17989.611096    -88.842585
PG08  15466.790297   9163.674898 -19786.761850     68.898908
PG09  25401.633135  -7397.341565   2587.280943    131.500174
PG10 -10615.011979  22298.266356  -9125.814127     -1.490976
PG11  -8013.124640 -21143.296517  13997.992596   -612.700112
PG12 -12289.430377 -10289.659715  20902.760193   -489.031175
PG13  -5888.844223 -14135.465056 -21921.884074    635.849255
PG14  13360.181952 -19301.617221 -12209.458662    355.606508
PG15 -16308.599306  -8093.763673 -19893.084251    139.749911
PG16   1485.709877  23789.822085 -11558.538496   -336.479865
PG17  20783.456253 -13201.230551  10581.007379    712.931669
PG18 -18200.446056   1206.370334 -19358.776006   -579.376736
PG19  13058.072900 -15053.780190  17184.820768    456.749024
PG20  -1592.485857 -26424.143058  -2975.780304    383.201807
PG21  21007.898879  16961.383705  -1953.252153    130.569315
PG22  10199.470311 -24249.534871  -4231.791260     12.907575
PG23 -14656.033572  12040.171617 -18488.200785    181.671700
PG24 -21695.994383 -15708.060883    -97.864058   -449.014182
PG25 -15576.696212   1506.397847  21089.262023    491.811319
PG26  -3746.249603  26069.893144    900.547061    177.113287
PG27   2738.028089  15166.633284 -21886.253062    -13.213400
PG28  -5768.909713  14580.110902  21420.631262   -171.839420
PG29 -25994.721407   3599.811095   4391.203519   -604.278731
PG30  11510.696677 -10738.875253 -21266.566381   -416.970488
PG31   3449.388739  19618.862600  17157.495446   -228.003159
PG32 -17589.710255  15458.456708  12543.102392   -616.411398
PJ02 -31628.476864  25613.144492  16062.473644     -3.125410
PJ03 -26192.253861  16527.623207 -24000.645060     -0.171494
PJ04 -24887.695137  34006.669226   2308.554310     50.640706
PJ07 -25392.840323  33657.728184     56.958252     -0.014417
PR01  12426.375941 -18900.193746 -11769.036405     80.230876
PR02  -1717.096402 -12172.095066 -22309.164605    -22.617422
PR03 -15685.343979   1097.721838 -20013.289309     96.729742
PR04 -20646.582556  13295.269394  -6844.514359    228.447349
PR05 -14610.124849  18343.527175  10028.949595    128.711087
PR06   3480.535826  11377.030241  22557.663145   -155.573701
PR07  16262.005202  -1812.006729  19632.895393     78.390790
PR08  20597.787581 -13514.732596   6741.656317    -74.790225
PR09   7893.111781  23757.983984  -5095.262677    176.450237
PR10  11686.694276  13725.090480 -18022.554364   -138.558457
PR11   9941.283405  -5497.142767 -22830.190419     30.603359
PR12   1675.340945 -22243.502649 -12366.653225     38.036663
PR13  -6426.257178 -24540.159417   2677.645376    -45.488186
PR14 -11941.475663 -11714.225109  19256.884536     26.241252
PR15  -9655.852283   7109.341104  22528.728896     81.189810
PR16  -1638.060764  22098.253442  12670.920241     24.177722
PR17 -23989.732249  -8714.976402    334.437091     70.743485
PR18 -20407.717303   -206.336996 -15250.084672    133.150368
PR19  -8422.117571   7581.125794 -22853.585464   -270.090963
PR20  13039.374881  13581.628637 -17228.677989   -110.079663
PR21  23912.369543   8849.560573   -214.737291    -86.136837
PR22  19905.326933   -156.384617  15986.916584    113.765579
PR23   4705.201030  -9370.105911  23244.648463   -115.452786
PR24 -13934.401246 -13343.827195  16706.236602    -48.552830
PR25  23627.511476   9591.991689   -124.112226    -23.971419
PR26  20512.002728 -13040.697525   7721.384569    -29.241768
EOF
